{"type":"FeatureCollection","name":"Sing Buri districts","license":"CC BY 3.0 IGO","source":"geoBoundaries / Royal Thai Survey Department / OCHA ROAP","sourceUrl":"https://www.geoboundaries.org/api/current/gbOpen/THA/ADM2/","boundaryYear":"2019","features":[{"type":"Feature","properties":{"code":"1702","nameTh":"บางระจัน","nameEn":"Bang Rachan"},"geometry":{"type":"Polygon","coordinates":[[[100.341570551000075,14.937216233000072],[100.341022774000066,14.940798555000072],[100.335347798000043,14.939733499000056],[100.331897859000037,14.946323564000068],[100.327636239000071,14.945076927000059],[100.327940122000086,14.949809674000051],[100.323625513000081,14.949889139000049],[100.324216784000043,14.951711247000048],[100.320015410000053,14.956001588000049],[100.306628053000054,14.95567489900003],[100.305186616000071,14.952823139000031],[100.301427577000084,14.951444597000034],[100.30034532500008,14.953870546000076],[100.297662376000062,14.953108177000047],[100.297507021000058,14.954482712000072],[100.294038439000076,14.954095087000042],[100.288458369000068,14.956346628000063],[100.275164190000055,14.950507567000045],[100.263200096000048,14.949859738000043],[100.263279407000084,14.947447045000047],[100.259034848000056,14.943857930000036],[100.244378687000051,14.946131623000042],[100.236842103000072,14.951957339000046],[100.202695123000069,14.953456120000055],[100.197792574000061,14.939403537000032],[100.193806037000058,14.937461900000073],[100.186481625000056,14.937180789000024],[100.182473812000069,14.935048497000025],[100.182456714000068,14.924476311000035],[100.186305573000084,14.919474648000062],[100.186406680000061,14.908203961000027],[100.192180979000057,14.904924584000071],[100.197214086000088,14.90432665700007],[100.216293850000056,14.910454156000071],[100.222115704000032,14.908399922000058],[100.224203463000038,14.903491920000022],[100.217729940000083,14.901001876000066],[100.215092851000065,14.898029620000045],[100.207589786000085,14.897123549000071],[100.206229653000037,14.895112155000049],[100.207743599000082,14.887004506000039],[100.210155081000039,14.884149300000047],[100.213549676000071,14.883673275000035],[100.21868179900008,14.886031667000054],[100.224386578000065,14.884176018000062],[100.223715499000036,14.879950835000045],[100.216137454000034,14.872213137000074],[100.221459497000069,14.864775993000023],[100.217799881000076,14.859235049000063],[100.218422524000061,14.853124270000023],[100.216369455000063,14.849357162000047],[100.218761488000041,14.844076014000052],[100.215427359000046,14.839860029000022],[100.218181279000078,14.839230933000067],[100.221950577000086,14.843249046000039],[100.223852085000033,14.841734447000022],[100.239342054000076,14.844096375000049],[100.24003341100007,14.838628313000072],[100.250843936000081,14.839711764000072],[100.253890784000077,14.842794364000042],[100.254340186000036,14.846524005000049],[100.248360630000036,14.854034622000029],[100.248238736000076,14.857025123000028],[100.251659517000064,14.859673773000054],[100.253070107000042,14.86743894600005],[100.262544840000032,14.869130403000042],[100.267925587000036,14.856017063000024],[100.274749004000057,14.847148698000069],[100.270568332000039,14.826850836000062],[100.293464263000033,14.826266127000054],[100.300301800000057,14.831578768000043],[100.306390751000038,14.828379416000075],[100.315986395000039,14.835641790000068],[100.321808685000065,14.844631631000027],[100.321050017000061,14.849202376000051],[100.353000856000051,14.848918464000064],[100.355981867000082,14.849897662000046],[100.360997557000076,14.861237519000042],[100.365189827000052,14.863766521000059],[100.366119332000039,14.862779438000075],[100.369517471000052,14.866863126000055],[100.367430943000045,14.87112860600007],[100.364770545000056,14.877662961000055],[100.35966899500005,14.87620282000006],[100.359078749000048,14.880003196000075],[100.350396142000079,14.881534622000061],[100.349447768000061,14.884191819000023],[100.350870498000063,14.886665378000032],[100.349396527000067,14.888221723000072],[100.349334184000043,14.893331120000028],[100.345300694000059,14.896263282000064],[100.344489406000037,14.898640839000052],[100.342636291000076,14.897352890000036],[100.34075507700004,14.898413871000059],[100.343249362000051,14.902103617000023],[100.342513562000079,14.905378981000069],[100.341131543000074,14.905983734000074],[100.341658130000042,14.909212638000042],[100.336501700000042,14.910836958000061],[100.337194412000088,14.913045515000022],[100.335919043000047,14.913977699000043],[100.341276896000068,14.916465654000035],[100.340156769000032,14.920044404000066],[100.341671327000086,14.922108584000057],[100.347304718000032,14.923446581000064],[100.347509811000066,14.924912704000064],[100.341570551000075,14.937216233000072]]]}},{"type":"Feature","properties":{"code":"1706","nameTh":"อินทร์บุรี","nameEn":"In Buri"},"geometry":{"type":"Polygon","coordinates":[[[100.427487414000041,15.061086905000025],[100.424430287000064,15.051634568000054],[100.37490801000007,15.086660777000077],[100.354643979000059,15.096715006000068],[100.353123361000087,15.101318194000044],[100.355983252000044,15.117641872000036],[100.354619059000072,15.120522984000047],[100.351524379000068,15.118409770000028],[100.320837250000068,15.09442802500007],[100.320104900000047,15.092620201000045],[100.306532747000062,15.086203944000033],[100.298834747000058,15.085886681000034],[100.293281599000068,15.081826512000077],[100.293786759000056,15.079260719000047],[100.291171821000034,15.076797831000022],[100.294402099000081,15.071632381000029],[100.293571237000037,15.064535337000052],[100.288561460000039,15.065891932000056],[100.280209778000085,15.063752161000025],[100.277510858000085,15.066184116000045],[100.259587236000073,15.058910965000052],[100.26074354800005,15.054052100000035],[100.259521041000085,15.049932919000071],[100.256450353000048,15.049236792000045],[100.255439618000082,15.04628748600004],[100.247253403000059,15.039876144000061],[100.241120454000054,15.038650090000033],[100.236619680000047,15.040109451000035],[100.236626520000073,15.038292113000068],[100.234514380000064,15.038337253000066],[100.234559369000067,15.040137485000059],[100.218742945000088,15.044283996000047],[100.218676172000073,15.040610269000069],[100.219782168000052,15.040598981000073],[100.219716320000032,15.038767633000077],[100.222255277000045,15.038703965000025],[100.223279149000064,15.033213735000061],[100.221265688000074,15.03270369300003],[100.225597286000038,15.027102812000066],[100.223943972000086,15.024909168000022],[100.233125408000035,15.024539711000045],[100.237353580000047,15.020961581000051],[100.240021974000058,15.021669881000037],[100.240463563000048,15.024652350000054],[100.244911753000054,15.023701113000072],[100.245946264000054,15.021033723000073],[100.242630914000074,15.018147774000056],[100.247296384000038,15.01696995900005],[100.249334554000086,15.019144278000056],[100.250714679000055,15.018745514000045],[100.249970290000078,15.012582322000071],[100.255608143000075,15.007760142000052],[100.257809929000075,15.007697196000038],[100.263364022000076,15.011540939000042],[100.268152259000033,15.010387263000041],[100.271387064000066,14.999860676000026],[100.275419353000075,14.995840638000061],[100.275369796000064,14.992202817000077],[100.278350808000084,14.991311916000029],[100.281599478000032,14.991615383000067],[100.283679077000045,14.993693453000049],[100.286188079000055,14.992899654000041],[100.285671432000072,14.988080007000065],[100.288681675000078,14.983052587000032],[100.288519063000081,14.979504299000041],[100.291180088000033,14.976667666000026],[100.287203288000057,14.975040858000057],[100.288319204000061,14.969722868000076],[100.28709798400007,14.969176235000077],[100.28808924100008,14.960228403000031],[100.287140880000038,14.957925857000077],[100.288458369000068,14.956346628000063],[100.294038439000076,14.954095087000042],[100.297507021000058,14.954482712000072],[100.297662376000062,14.953108177000047],[100.30034532500008,14.953870546000076],[100.301427577000084,14.951444597000034],[100.305186616000071,14.952823139000031],[100.306628053000054,14.95567489900003],[100.320015410000053,14.956001588000049],[100.324216784000043,14.951711247000048],[100.323625513000081,14.949889139000049],[100.327940122000086,14.949809674000051],[100.327636239000071,14.945076927000059],[100.331897859000037,14.946323564000068],[100.335347798000043,14.939733499000056],[100.341022774000066,14.940798555000072],[100.341570551000075,14.937216233000072],[100.347660791000067,14.938752192000038],[100.35062006000004,14.937376028000074],[100.355900445000032,14.940925078000078],[100.35841567600005,14.940238321000038],[100.367431716000056,14.943493129000046],[100.365736841000057,14.951527095000074],[100.373886065000079,14.955408095000053],[100.393456524000044,14.957567016000041],[100.403459697000073,14.964146867000068],[100.411572317000036,14.966297093000037],[100.405706851000048,14.978053834000036],[100.407001552000054,14.981875643000024],[100.421738346000041,14.996577843000068],[100.425418447000084,14.994749052000031],[100.430322840000088,14.995266291000064],[100.446885553000072,15.003178427000023],[100.451239326000064,15.00391649200003],[100.461231675000079,15.002544435000061],[100.46912141200005,15.023582404000024],[100.46910495700007,15.029072817000042],[100.446711524000079,15.055237117000047],[100.427487414000041,15.061086905000025]]]}},{"type":"Feature","properties":{"code":"1703","nameTh":"ค่ายบางระจัน","nameEn":"Khai Bang Rachan"},"geometry":{"type":"Polygon","coordinates":[[[100.215427359000046,14.839860029000022],[100.20940631600007,14.833520653000051],[100.209272931000044,14.822237913000038],[100.20433244700007,14.809338142000058],[100.214535722000051,14.806854998000063],[100.217111959000079,14.79775541500004],[100.224656739000068,14.797866837000072],[100.226433168000085,14.795045493000032],[100.242291245000047,14.798115659000075],[100.24496633800004,14.800539481000044],[100.252375487000052,14.797890670000072],[100.254898757000035,14.795564156000069],[100.266317072000049,14.795721137000044],[100.272478829000079,14.799474363000058],[100.277977442000065,14.790201509000042],[100.290159403000075,14.785177555000075],[100.295329791000086,14.78078361200005],[100.297383764000074,14.788390474000039],[100.299461561000044,14.789908702000048],[100.303986653000038,14.788170066000077],[100.314333683000086,14.789845526000022],[100.314111266000054,14.793038949000049],[100.309458116000087,14.795987019000052],[100.31127353100004,14.797863132000032],[100.325267951000058,14.80062003200004],[100.328554251000071,14.802458107000064],[100.331531419000044,14.800785090000034],[100.333797071000049,14.796288164000032],[100.336580361000074,14.794424484000047],[100.335699695000073,14.790298711000048],[100.342341306000037,14.786845139000036],[100.343258332000062,14.781847009000046],[100.348868689000085,14.77950241800005],[100.367140712000037,14.790858882000066],[100.376011684000048,14.800480338000057],[100.376641054000061,14.801204575000042],[100.373813447000032,14.802642128000059],[100.372015231000034,14.805715058000033],[100.377084997000054,14.806938767000076],[100.39305713400006,14.816935558000068],[100.389457299000071,14.836592733000032],[100.389437364000059,14.845910926000045],[100.377712356000075,14.850101536000068],[100.378746269000032,14.856027021000045],[100.381724077000058,14.857919078000066],[100.386887498000078,14.864929496000059],[100.386387101000082,14.867549410000038],[100.383011602000067,14.870790460000023],[100.379123068000069,14.870150968000075],[100.375845404000074,14.872265929000037],[100.367430943000045,14.87112860600007],[100.369517471000052,14.866863126000055],[100.366119332000039,14.862779438000075],[100.365189827000052,14.863766521000059],[100.360997557000076,14.861237519000042],[100.355981867000082,14.849897662000046],[100.353000856000051,14.848918464000064],[100.321050017000061,14.849202376000051],[100.321808685000065,14.844631631000027],[100.315986395000039,14.835641790000068],[100.306390751000038,14.828379416000075],[100.300301800000057,14.831578768000043],[100.293464263000033,14.826266127000054],[100.270568332000039,14.826850836000062],[100.274749004000057,14.847148698000069],[100.267925587000036,14.856017063000024],[100.262544840000032,14.869130403000042],[100.253070107000042,14.86743894600005],[100.251659517000064,14.859673773000054],[100.248238736000076,14.857025123000028],[100.248360630000036,14.854034622000029],[100.254340186000036,14.846524005000049],[100.253890784000077,14.842794364000042],[100.250843936000081,14.839711764000072],[100.24003341100007,14.838628313000072],[100.239342054000076,14.844096375000049],[100.223852085000033,14.841734447000022],[100.221950577000086,14.843249046000039],[100.218181279000078,14.839230933000067],[100.215427359000046,14.839860029000022]]]}},{"type":"Feature","properties":{"code":"1701","nameTh":"เมืองสิงห์บุรี","nameEn":"Mueang Sing Buri"},"geometry":{"type":"Polygon","coordinates":[[[100.446885553000072,15.003178427000023],[100.430322840000088,14.995266291000064],[100.425418447000084,14.994749052000031],[100.421738346000041,14.996577843000068],[100.407001552000054,14.981875643000024],[100.405706851000048,14.978053834000036],[100.411572317000036,14.966297093000037],[100.403459697000073,14.964146867000068],[100.393456524000044,14.957567016000041],[100.373886065000079,14.955408095000053],[100.365736841000057,14.951527095000074],[100.367431716000056,14.943493129000046],[100.35841567600005,14.940238321000038],[100.355900445000032,14.940925078000078],[100.35062006000004,14.937376028000074],[100.347660791000067,14.938752192000038],[100.341570551000075,14.937216233000072],[100.347509811000066,14.924912704000064],[100.347304718000032,14.923446581000064],[100.341671327000086,14.922108584000057],[100.340156769000032,14.920044404000066],[100.341276896000068,14.916465654000035],[100.335919043000047,14.913977699000043],[100.337194412000088,14.913045515000022],[100.336501700000042,14.910836958000061],[100.341658130000042,14.909212638000042],[100.341131543000074,14.905983734000074],[100.342513562000079,14.905378981000069],[100.343249362000051,14.902103617000023],[100.34075507700004,14.898413871000059],[100.342636291000076,14.897352890000036],[100.344489406000037,14.898640839000052],[100.345300694000059,14.896263282000064],[100.349334184000043,14.893331120000028],[100.349396527000067,14.888221723000072],[100.350870498000063,14.886665378000032],[100.349447768000061,14.884191819000023],[100.350396142000079,14.881534622000061],[100.359078749000048,14.880003196000075],[100.35966899500005,14.87620282000006],[100.364770545000056,14.877662961000055],[100.367430943000045,14.87112860600007],[100.375845404000074,14.872265929000037],[100.379123068000069,14.870150968000075],[100.383011602000067,14.870790460000023],[100.386387101000082,14.867549410000038],[100.386887498000078,14.864929496000059],[100.381724077000058,14.857919078000066],[100.378746269000032,14.856027021000045],[100.377712356000075,14.850101536000068],[100.389437364000059,14.845910926000045],[100.389457299000071,14.836592733000032],[100.39305713400006,14.816935558000068],[100.397323491000066,14.812784564000026],[100.39902889800004,14.815220625000052],[100.40423966700007,14.809074274000068],[100.408397235000052,14.810212152000076],[100.407618768000077,14.819407789000024],[100.412048173000073,14.822467209000024],[100.413206553000066,14.829860377000045],[100.418520765000039,14.828080374000024],[100.420348837000063,14.832549389000064],[100.422499712000047,14.834000304000028],[100.418781147000061,14.835993203000044],[100.423031740000056,14.84271741200007],[100.429831417000059,14.848222723000049],[100.430769228000088,14.850547207000034],[100.440871325000046,14.850625623000042],[100.44407465900008,14.848671909000075],[100.454318547000071,14.857026374000043],[100.447746295000059,14.857325396000022],[100.445590804000062,14.860499920000052],[100.447219557000039,14.865383271000042],[100.446004186000039,14.868753695000066],[100.449444024000059,14.874207464000051],[100.45165115900005,14.874625094000066],[100.438437724000039,14.875819565000029],[100.439416811000058,14.880077023000069],[100.437027033000049,14.879672312000025],[100.435326216000078,14.882673917000034],[100.430285954000055,14.880474540000023],[100.427048071000058,14.885292267000068],[100.426793927000062,14.888316705000022],[100.428668281000057,14.889273698000068],[100.424827334000042,14.897355412000024],[100.424771763000081,14.902664284000025],[100.422126734000074,14.903635073000032],[100.423010626000064,14.916481726000029],[100.422000902000036,14.922429691000048],[100.419968383000082,14.927068397000028],[100.421283799000037,14.92997256700005],[100.445582455000078,14.939840889000038],[100.449170754000079,14.942712291000078],[100.451275,14.957617675000051],[100.450476693000041,14.973582079000039],[100.451817395000035,14.973881268000071],[100.450107936000052,14.984346060000064],[100.444250649000082,14.995979839000029],[100.447298439000065,14.996797488000027],[100.446885553000072,15.003178427000023]]]}},{"type":"Feature","properties":{"code":"1704","nameTh":"พรหมบุรี","nameEn":"Phrom Buri"},"geometry":{"type":"Polygon","coordinates":[[[100.457940105000034,14.721096421000027],[100.463308468000037,14.725980449000076],[100.468397896000056,14.723914744000069],[100.469293085000061,14.721653214000071],[100.474655865000045,14.722547658000053],[100.473593339000047,14.731119419000038],[100.477552703000072,14.733168628000044],[100.477508859000068,14.738286627000036],[100.484480795000081,14.739125602000058],[100.483127393000075,14.744701850000069],[100.488093388000038,14.748133983000059],[100.484281072000044,14.756560945000047],[100.472460555000055,14.761680988000023],[100.474378525000077,14.764920729000039],[100.477819793000037,14.765030698000032],[100.477976444000035,14.766403733000061],[100.474260917000038,14.769110580000074],[100.471589702000074,14.769227598000043],[100.472207388000072,14.770810365000045],[100.475634330000048,14.771900840000058],[100.473350715000038,14.775559650000048],[100.473903248000056,14.781059858000049],[100.469479609000075,14.787873180000076],[100.472090238000078,14.789928393000025],[100.470990481000058,14.792123184000047],[100.471968535000087,14.793793159000074],[100.468219286000078,14.798215829000071],[100.473014011000032,14.800688796000031],[100.482625961000053,14.81130984400005],[100.464213278000045,14.820561605000023],[100.46560422400006,14.828586722000068],[100.461009060000038,14.83041359300006],[100.460682392000081,14.832185836000065],[100.456374724000057,14.832792177000044],[100.456748376000064,14.835195337000073],[100.454748325000082,14.835838274000025],[100.457346554000083,14.841627499000026],[100.459727453000085,14.843511067000065],[100.458244765000074,14.845819826000024],[100.459369380000055,14.852958921000038],[100.457984914000065,14.857144841000036],[100.454318547000071,14.857026374000043],[100.44407465900008,14.848671909000075],[100.440871325000046,14.850625623000042],[100.430769228000088,14.850547207000034],[100.429831417000059,14.848222723000049],[100.423031740000056,14.84271741200007],[100.418781147000061,14.835993203000044],[100.422499712000047,14.834000304000028],[100.420348837000063,14.832549389000064],[100.418520765000039,14.828080374000024],[100.413206553000066,14.829860377000045],[100.412048173000073,14.822467209000024],[100.407618768000077,14.819407789000024],[100.408397235000052,14.810212152000076],[100.409013163000054,14.802949599000044],[100.416242833000069,14.802747525000029],[100.415652099000056,14.79871395300006],[100.411690101000033,14.798314214000072],[100.410165435000067,14.792715674000021],[100.420904539000048,14.789752571000065],[100.422034172000053,14.782623740000076],[100.424526871000069,14.780637945000024],[100.422047948000056,14.778406206000056],[100.422502346000044,14.773096099000043],[100.42106704400004,14.772943689000044],[100.420708295000054,14.770643465000035],[100.42067499400008,14.767394066000065],[100.423377284000082,14.764868122000053],[100.421529745000043,14.757926619000045],[100.422563078000053,14.751133012000025],[100.414751258000081,14.747663002000024],[100.416650086000061,14.742679768000073],[100.413268287000051,14.738084005000076],[100.416269688000057,14.734037615000034],[100.414902768000047,14.727578633000064],[100.416443810000032,14.725455746000023],[100.419605071000035,14.726725673000033],[100.422646615000076,14.728589475000035],[100.425142433000076,14.72741867700006],[100.437591797000039,14.727790931000072],[100.437826790000088,14.725730261000024],[100.448600396000074,14.724588636000021],[100.450684641000066,14.721109098000056],[100.457940105000034,14.721096421000027]]]}},{"type":"Feature","properties":{"code":"1705","nameTh":"ท่าช้าง","nameEn":"Tha Chang"},"geometry":{"type":"Polygon","coordinates":[[[100.348868689000085,14.77950241800005],[100.349779510000076,14.775739608000038],[100.348568667000052,14.77154833700007],[100.35223970900006,14.768915617000062],[100.355950844000063,14.761521326000036],[100.371426073000066,14.763076762000026],[100.375203517000045,14.752435176000063],[100.377637849000052,14.751317651000022],[100.381580014000065,14.74300437900007],[100.382791341000086,14.744139953000058],[100.393194935000054,14.744168251000076],[100.399678425000047,14.750869324000064],[100.399671377000061,14.754085404000023],[100.401958042000047,14.755775141000072],[100.402881093000076,14.759318689000054],[100.412198713000066,14.752808775000062],[100.414751258000081,14.747663002000024],[100.422563078000053,14.751133012000025],[100.421529745000043,14.757926619000045],[100.423377284000082,14.764868122000053],[100.42067499400008,14.767394066000065],[100.420708295000054,14.770643465000035],[100.42106704400004,14.772943689000044],[100.422502346000044,14.773096099000043],[100.422047948000056,14.778406206000056],[100.424526871000069,14.780637945000024],[100.422034172000053,14.782623740000076],[100.420904539000048,14.789752571000065],[100.410165435000067,14.792715674000021],[100.411690101000033,14.798314214000072],[100.415652099000056,14.79871395300006],[100.416242833000069,14.802747525000029],[100.409013163000054,14.802949599000044],[100.408397235000052,14.810212152000076],[100.40423966700007,14.809074274000068],[100.39902889800004,14.815220625000052],[100.397323491000066,14.812784564000026],[100.39305713400006,14.816935558000068],[100.377084997000054,14.806938767000076],[100.372015231000034,14.805715058000033],[100.373813447000032,14.802642128000059],[100.376641054000061,14.801204575000042],[100.376011684000048,14.800480338000057],[100.367140712000037,14.790858882000066],[100.348868689000085,14.77950241800005]]]}}]}
